YAOGAN-39 02C           
1 57890U 23145E   26068.60418748  .00008210  00000+0  41020-3 0  9994
2 57890  34.9932 125.2072 0007230 244.0478 115.9490 15.16731144137723
ICEYE-X58               
1 66751U 25276CP  26068.73711844  .00005033  00000+0  24630-3 0  9992
2 66751  97.4274 144.0257 0002447 349.5523  10.5660 15.18634062 15326
