[{"OBJECT_NAME":"YAOGAN-39 02C","OBJECT_ID":"2023-145E","EPOCH":"2026-03-09T14:30:01.798272","MEAN_MOTION":15.16731144,"ECCENTRICITY":0.000723,"INCLINATION":34.9932,"RA_OF_ASC_NODE":125.2072,"ARG_OF_PERICENTER":244.0478,"MEAN_ANOMALY":115.949,"EPHEMERIS_TYPE":0,"CLASSIFICATION_TYPE":"U","NORAD_CAT_ID":57890,"ELEMENT_SET_NO":999,"REV_AT_EPOCH":13772,"BSTAR":0.0004102,"MEAN_MOTION_DOT":8.21e-5,"MEAN_MOTION_DDOT":0},{"OBJECT_NAME":"ICEYE-X58","OBJECT_ID":"2025-276CP","EPOCH":"2026-03-09T17:41:27.034080","MEAN_MOTION":15.18634062,"ECCENTRICITY":0.0002447,"INCLINATION":97.4274,"RA_OF_ASC_NODE":144.0257,"ARG_OF_PERICENTER":349.5523,"MEAN_ANOMALY":10.566,"EPHEMERIS_TYPE":0,"CLASSIFICATION_TYPE":"U","NORAD_CAT_ID":66751,"ELEMENT_SET_NO":999,"REV_AT_EPOCH":1532,"BSTAR":0.00024630066,"MEAN_MOTION_DOT":5.033e-5,"MEAN_MOTION_DDOT":0}]
